S-NET B                 
1 43187U 18014H   26129.47588809  .00003909  00000+0  20520-3 0  9998
2 43187  97.5392  34.4991 0010035 139.3586 220.8398 15.16278772452890
S-NET A                 
1 43188U 18014J   26129.53025052  .00003542  00000+0  18609-3 0  9990
2 43188  97.5402  34.7548 0009918 139.5383 220.6589 15.16316040452902
S-NET C                 
1 43189U 18014K   26129.47955389  .00003966  00000+0  20815-3 0  9991
2 43189  97.5421  34.7731 0011412 134.3784 225.8386 15.16269763451447
PAZ                     
1 43215U 18020A   26129.50818377  .00001482  00000+0  73757-4 0  9992
2 43215  97.4461 137.4428 0001678  88.2597 271.8829 15.19157706455135
GOES 17                 
1 43226U 18022A   26129.45291402 -.00000174  00000+0  00000+0 0  9998
2 43226   0.8383  86.2425 0000671 321.4475 253.1414  1.00271098 30032
LKW-4                   
1 43236U 18025A   26129.41714682  .00031920  00000+0  40536-3 0  9992
2 43236  97.6334 297.3542 0003301  95.8657 264.2975 15.59355553453981
ZHUHAI-1 OVS-02         
1 43440U 18040B   26129.51151795  .00005269  00000+0  21686-3 0  9999
2 43440  97.0420 149.0458 0005088  57.9735 302.1997 15.24511772446827
ZHUHAI-1 OHS-02         
1 43441U 18040C   26129.51768378  .00005718  00000+0  22933-3 0  9996
2 43441  97.0407 155.9529 0009720  21.3604 338.8038 15.25321057108389
GAOFEN-6                
1 43484U 18048A   26129.51321683  .00000301  00000+0  50101-4 0  9997
2 43484  97.7773 193.6098 0010818 305.0045  55.0149 14.76585768427684
LUOJIA-1 01             
1 43485U 18048B   26129.48734334  .00001250  00000+0  14516-3 0  9998
2 43485  97.8096 208.2999 0007694 245.0350 115.0067 14.87138770428469
PAKTES 1A               
1 43529U 18056A   26129.55510796  .00002684  00000+0  22657-3 0  9995
2 43529  98.1220 284.4123 0021401 237.9772 121.9370 14.98892809426133
PRSS-1                  
1 43530U 18056B   26129.50107308  .00001155  00000+0  15232-3 0  9996
2 43530  97.7829 198.4401 0001806  95.0452 265.0967 14.81930519422707
HAIYANG-1C              
1 43609U 18068A   26129.52449475  .00000369  00000+0  14732-3 0  9992
2 43609  98.5193 202.3885 0010306 203.3715 156.7003 14.34167999401547
SSTL S1-4               
1 43618U 18071A   26129.56629301 -.00000050  00000+0  37692-6 0  9999
2 43618  97.5073   2.7763 0001362  55.9129 304.2222 14.96195773417169
HAIYANG-2B              
1 43655U 18081A   26129.49985770  .00000040  00000+0  82293-4 0  9991
2 43655  99.3305 138.8391 0001797  55.3620 304.7701 13.79306035379594
CFOSAT                  
1 43662U 18083A   26129.49141801  .00002804  00000+0  14745-3 0  9996
2 43662  97.3619 135.1604 0002095  65.3938 294.7513 15.16463072416577
TEN-KOH                 
1 43677U 18084G   26129.50631375  .00000946  00000+0  75705-4 0  9994
2 43677  98.0781 320.2464 0007822 243.4301 116.6121 15.02771880410359
DIWATA-2B               
1 43678U 18084H   26129.48839725  .00001955  00000+0  16118-3 0  9994
2 43678  98.1095 324.0404 0012203 304.7193  55.2879 15.00259671410416
STARS-AO                
1 43679U 18084J   26129.54783351  .00004391  00000+0  22846-3 0  9997
2 43679  98.0548 341.1426 0000999 336.9564  23.1623 15.16623851411617
AUTCUBE 2               
1 43681U 18084K   26129.52942191  .00002611  00000+0  16575-3 0  9992
2 43681  98.0748 333.6560 0009322 165.7663 194.3829 15.09821993411094
METOP-C                 
1 43689U 18087A   26129.49560022  .00000067  00000+0  50308-4 0  9994
2 43689  98.6665 189.8015 0000268  76.6537 283.4670 14.21501383389338
ES'HAIL 2               
1 43700U 18090A   26129.47570744  .00000153  00000+0  00000+0 0  9997
2 43700   0.0028  83.5773 0001673 357.6104 343.1803  1.00273095 27280
MOHAMMED VI-B           
1 43717U 18095A   26129.49633545  .00000898  00000+0  13449-3 0  9992
2 43717  97.9558 202.3515 0001379  76.9131 283.2233 14.77068214402472
HYSIS                   
1 43719U 18096A   26129.50402222  .00000975  00000+0  14029-3 0  9994
2 43719  97.9851 196.5514 0000805  89.1621 270.9682 14.78615562401707
COSMOS 2530 (RODNIK-S *)
1 43751U 18097A   26129.49646536  .00000020  00000+0  74423-4 0  9993
2 43751  82.5142 246.2901 0020717 119.9248 240.3893 12.42880282337480
COSMOS 2531 (RODNIK-S *)
1 43752U 18097B   26129.51970064 -.00000005  00000+0 -10696-3 0  9999
2 43752  82.5187 247.3213 0017748 137.6720 222.5733 12.42911828337509
COSMOS 2532 (RODNIK-S *)
1 43753U 18097C   26129.54787604  .00000011  00000+0  38250-5 0  9992
2 43753  82.5132 246.1072 0019096 139.7801 220.4695 12.42908565337475
MINXSS-2                
1 43758U 18099A   26129.18031831  .00028302  00000+0  61254-3 0  9994
2 43758  97.4546 204.4012 0007866  57.0254 303.1750 15.44398898408108
SIRION PATHFINDER-2     
1 43759U 18099B   26129.39486081  .00003614  00000+0  20134-3 0  9990
2 43759  97.4283 179.3789 0010456  78.3945 281.8460 15.14194597406756
AISTECHSAT 2            
1 43768U 18099L   26129.39051868  .00004026  00000+0  21868-3 0  9994
2 43768  97.4326 178.2793 0006407  80.7547 279.4409 15.15054429406401
