OBJECT_NAME,OBJECT_ID,EPOCH,MEAN_MOTION,ECCENTRICITY,INCLINATION,RA_OF_ASC_NODE,ARG_OF_PERICENTER,MEAN_ANOMALY,EPHEMERIS_TYPE,CLASSIFICATION_TYPE,NORAD_CAT_ID,ELEMENT_SET_NO,REV_AT_EPOCH,BSTAR,MEAN_MOTION_DOT,MEAN_MOTION_DDOT
S-NET B,2018-014H,2026-05-09T11:25:16.730976,15.16278772,.0010035,97.5392,34.4991,139.3586,220.8398,0,U,43187,999,45289,.2052E-3,.3909E-4,0
S-NET A,2018-014J,2026-05-09T12:43:33.644928,15.16316040,.0009918,97.5402,34.7548,139.5383,220.6589,0,U,43188,999,45290,.18609E-3,.3542E-4,0
S-NET C,2018-014K,2026-05-09T11:30:33.456096,15.16269763,.0011412,97.5421,34.7731,134.3784,225.8386,0,U,43189,999,45144,.20815E-3,.3966E-4,0
PAZ,2018-020A,2026-05-09T12:11:47.077728,15.19157706,.0001678,97.4461,137.4428,88.2597,271.8829,0,U,43215,999,45513,.73757E-4,.1482E-4,0
GOES 17,2018-022A,2026-05-09T10:52:11.771328,1.00271098,.0000671,0.8383,86.2425,321.4475,253.1414,0,U,43226,999,3003,0,-.174E-5,0
LKW-4,2018-025A,2026-05-09T10:00:41.485248,15.59355553,.0003301,97.6334,297.3542,95.8657,264.2975,0,U,43236,999,45398,.40536E-3,.3192E-3,0
ZHUHAI-1 OVS-02,2018-040B,2026-05-09T12:16:35.150880,15.24511772,.0005088,97.0420,149.0458,57.9735,302.1997,0,U,43440,999,44682,.21686E-3,.5269E-4,0
ZHUHAI-1 OHS-02,2018-040C,2026-05-09T12:25:27.878592,15.25321057,.000972,97.0407,155.9529,21.3604,338.8038,0,U,43441,999,10838,.22933E-3,.5718E-4,0
GAOFEN-6,2018-048A,2026-05-09T12:19:01.934112,14.76585768,.0010818,97.7773,193.6098,305.0045,55.0149,0,U,43484,999,42768,.50101E-4,.301E-5,0
LUOJIA-1 01,2018-048B,2026-05-09T11:41:46.464576,14.87138770,.0007694,97.8096,208.2999,245.0350,115.0067,0,U,43485,999,42846,.14516E-3,.125E-4,0
PAKTES 1A,2018-056A,2026-05-09T13:19:21.327744,14.98892809,.0021401,98.1220,284.4123,237.9772,121.9370,0,U,43529,999,42613,.22657E-3,.2684E-4,0
PRSS-1,2018-056B,2026-05-09T12:01:32.714112,14.81930519,.0001806,97.7829,198.4401,95.0452,265.0967,0,U,43530,999,42270,.15232E-3,.1155E-4,0
HAIYANG-1C,2018-068A,2026-05-09T12:35:16.346400,14.34167999,.0010306,98.5193,202.3885,203.3715,156.7003,0,U,43609,999,40154,.14732E-3,.369E-5,0
SSTL S1-4,2018-071A,2026-05-09T13:35:27.716064,14.96195773,.0001362,97.5073,2.7763,55.9129,304.2222,0,U,43618,999,41716,.37692E-6,-.5E-6,0
HAIYANG-2B,2018-081A,2026-05-09T11:59:47.705280,13.79306035,.0001797,99.3305,138.8391,55.3620,304.7701,0,U,43655,999,37959,.82293E-4,.4E-6,0
CFOSAT,2018-083A,2026-05-09T11:47:38.516064,15.16463072,.0002095,97.3619,135.1604,65.3938,294.7513,0,U,43662,999,41657,.14745E-3,.2804E-4,0
TEN-KOH,2018-084G,2026-05-09T12:09:05.508000,15.02771880,.0007822,98.0781,320.2464,243.4301,116.6121,0,U,43677,999,41035,.75705E-4,.946E-5,0
DIWATA-2B,2018-084H,2026-05-09T11:43:17.522400,15.00259671,.0012203,98.1095,324.0404,304.7193,55.2879,0,U,43678,999,41041,.16118E-3,.1955E-4,0
STARS-AO,2018-084J,2026-05-09T13:08:52.815264,15.16623851,.0000999,98.0548,341.1426,336.9564,23.1623,0,U,43679,999,41161,.22846E-3,.4391E-4,0
AUTCUBE 2,2018-084K,2026-05-09T12:42:22.053024,15.09821993,.0009322,98.0748,333.6560,165.7663,194.3829,0,U,43681,999,41109,.16575E-3,.2611E-4,0
METOP-C,2018-087A,2026-05-09T11:53:39.859008,14.21501383,.0000268,98.6665,189.8015,76.6537,283.4670,0,U,43689,999,38933,.50308E-4,.67E-6,0
ES'HAIL 2,2018-090A,2026-05-09T11:25:01.122816,1.00273095,.0001673,0.0028,83.5773,357.6104,343.1803,0,U,43700,999,2728,0,.153E-5,0
MOHAMMED VI-B,2018-095A,2026-05-09T11:54:43.382880,14.77068214,.0001379,97.9558,202.3515,76.9131,283.2233,0,U,43717,999,40247,.13449E-3,.898E-5,0
HYSIS,2018-096A,2026-05-09T12:05:47.519808,14.78615562,.0000805,97.9851,196.5514,89.1621,270.9682,0,U,43719,999,40170,.14029E-3,.975E-5,0
COSMOS 2530 (RODNIK-S 16),2018-097A,2026-05-09T11:54:54.607104,12.42880282,.0020717,82.5142,246.2901,119.9248,240.3893,0,U,43751,999,33748,.74423E-4,.2E-6,0
COSMOS 2531 (RODNIK-S 17),2018-097B,2026-05-09T12:28:22.135296,12.42911828,.0017748,82.5187,247.3213,137.6720,222.5733,0,U,43752,999,33750,-.10696E-3,-.5E-7,0
COSMOS 2532 (RODNIK-S 18),2018-097C,2026-05-09T13:08:56.489856,12.42908565,.0019096,82.5132,246.1072,139.7801,220.4695,0,U,43753,999,33747,.3825E-5,.11E-6,0
MINXSS-2,2018-099A,2026-05-09T04:19:39.501120,15.44398898,.0007866,97.4546,204.4012,57.0254,303.1750,0,U,43758,999,40810,.61254E-3,.28302E-3,0
SIRION PATHFINDER-2,2018-099B,2026-05-09T09:28:35.973984,15.14194597,.0010456,97.4283,179.3789,78.3945,281.8460,0,U,43759,999,40675,.20134E-3,.3614E-4,0
AISTECHSAT 2,2018-099L,2026-05-09T09:22:20.813952,15.15054429,.0006407,97.4326,178.2793,80.7547,279.4409,0,U,43768,999,40640,.21868E-3,.4026E-4,0
